SITRO-AIS 52            
1 59063U 24039N   24131.19249677  .00032057  00000+0  12290-2 0  9999
2 59063  97.3909  93.6174 0017109   2.2040 357.9270 15.26305694 10801
SITRO-AIS 25            
1 59066U 24039R   24131.14287244  .00007849  00000+0  75530-3 0  9997
2 59066  95.4025  71.6084 0175752 113.4712 248.5090 14.82122357 10470
SITRO-AIS 26            
1 59067U 24039S   24131.14214658  .00007595  00000+0  73131-3 0  9990
2 59067  95.4025  71.6085 0175556 113.4979 248.4798 14.82126669 10473
SITRO-AIS 27            
1 59068U 24039T   24131.13668988  .00007971  00000+0  76534-3 0  9997
2 59068  95.4028  71.6157 0175297 113.3714 248.6053 14.82254364 10475
SITRO-AIS 28            
1 59071U 24039U   24131.13505974  .00008077  00000+0  77514-3 0  9993
2 59071  95.4028  71.6179 0175178 113.3755 248.5998 14.82284476 10470
